{
  "type": "FeatureCollection",
  "features": [
    {
      "type": "Feature",
      "properties": {
        "name": "Ring Line"
      },
      "geometry": {
        "type": "LineString",
        "coordinates": [
          [
            6.584844589233398,
            51.83938375298
          ],
          [
            6.604585647583009,
            51.85067825165782
          ],
          [
            6.57883644104004,
            51.84659562372163
          ],
          [
            6.583642959594727,
            51.844474631882235
          ],
          [
            6.578664779663087,
            51.83874745471237
          ],
          [
            6.559953689575196,
            51.84012628617325
          ],
          [
            6.571455001831055,
            51.84680771740897
          ],
          [
            6.590251922607422,
            51.855343658704946
          ],
          [
            6.573772430419923,
            51.85042277227796
          ],
          [
            6.557807922363282,
            51.85326185449319
          ],
          [
            6.5478515625,
            51.85065144748067
          ],
          [
            6.560804808930749,
            51.839343690782435
          ],
          [
            6.560804808930749,
            51.839343690782435
          ],
          [
            6.560804808930749,
            51.839343690782435
          ],
          [
            6.562435592011806,
            51.838123936212824
          ],
          [
            6.569223403930665,
            51.833072588453625
          ],
          [
            6.58,
            51.825
          ]
        ]
      }
    }
  ]
}