{
  "type": "FeatureCollection",
  "features": [
    {
      "type": "Feature",
      "properties": {
        "name": "Ring Line"
      },
      "geometry": {
        "type": "LineString",
        "coordinates": [
          [
            6.649668216705323,
            51.837799483588306
          ],
          [
            6.649067401885987,
            51.841014549461654
          ],
          [
            6.648595333099365,
            51.84334781431842
          ],
          [
            6.648230552673341,
            51.844090191412796
          ],
          [
            6.646535396575929,
            51.84439509274414
          ],
          [
            6.642887592315675,
            51.844925351010176
          ],
          [
            6.639690399169923,
            51.84479278702925
          ],
          [
            6.637287139892579,
            51.84451440139859
          ],
          [
            6.634325981140138,
            51.84456742736574
          ],
          [
            6.630227565765382,
            51.84686074067463
          ],
          [
            6.629374623298646,
            51.84730812199195
          ],
          [
            6.62902593612671,
            51.84750032889604
          ],
          [
            6.628569960594178,
            51.847772068290965
          ],
          [
            6.628559231758119,
            51.84795764547156
          ],
          [
            6.628409028053285,
            51.848043806045304
          ],
          [
            6.628092527389527,
            51.8481200248769
          ],
          [
            6.627652645111085,
            51.84840501588632
          ],
          [
            6.627309322357178,
            51.84863698398042
          ],
          [
            6.627330780029297,
            51.84875628139189
          ],
          [
            6.627191305160523,
            51.84887557848713
          ],
          [
            6.626992821693421,
            51.84887226468319
          ],
          [
            6.6265207529068,
            51.84911085794264
          ],
          [
            6.624412536621095,
            51.85038664765781
          ],
          [
            6.619348526000977,
            51.851891038933
          ],
          [
            6.615255475044251,
            51.85222570944906
          ],
          [
            6.614021658897401,
            51.852043463437035
          ],
          [
            6.609263420104981,
            51.851407253391784
          ],
          [
            6.601839065551759,
            51.84761631542382
          ],
          [
            6.597890853881837,
            51.84033841034244
          ],
          [
            6.597461700439454,
            51.834186403659885
          ],
          [
            6.598105430603027,
            51.827370483907565
          ],
          [
            6.598234176635743,
            51.82556687731289
          ],
          [
            6.597118377685548,
            51.82532815926371
          ],
          [
            6.596689224243164,
            51.826283023870026
          ],
          [
            6.598105430603027,
            51.826601307574144
          ],
          [
            6.600852012634277,
            51.827343960804384
          ],
          [
            6.604456901550294,
            51.82821921496355
          ],
          [
            6.609123945236207,
            51.8289419498955
          ],
          [
            6.609982252120973,
            51.82906129950251
          ],
          [
            6.610314846038819,
            51.829213801317906
          ],
          [
            6.610797643661499,
            51.829213801317906
          ],
          [
            6.611334085464478,
            51.829213801317906
          ],
          [
            6.611720323562623,
            51.829253584315275
          ],
          [
            6.6121816635131845,
            51.829306628257086
          ],
          [
            6.612653732299805,
            51.829067930026945
          ],
          [
            6.612492799758912,
            51.82868998857544
          ],
          [
            6.612128019332886,
            51.828292152042415
          ],
          [
            6.612138748168946,
            51.828172800397304
          ],
          [
            6.612278223037721,
            51.82813964710642
          ],
          [
            6.613844633102418,
            51.8276953906542
          ],
          [
            6.613994836807252,
            51.82764897554817
          ],
          [
            6.614515185356141,
            51.828166169741074
          ],
          [
            6.614697575569154,
            51.82833193585386
          ],
          [
            6.614906787872315,
            51.82835182774638
          ],
          [
            6.615094542503357,
            51.82831204395254
          ],
          [
            6.615260839462281,
            51.828262314160796
          ],
          [
            6.615099906921388,
            51.828040187087346
          ],
          [
            6.614874601364137,
            51.827774959296114
          ],
          [
            6.614713668823243,
            51.82760256039431
          ],
          [
            6.614617109298706,
            51.82748320692193
          ],
          [
            6.614059209823609,
            51.82673392512042
          ],
          [
            6.614488363265992,
            51.82627639293561
          ],
          [
            6.615132093429566,
            51.825951475953396
          ],
          [
            6.615357398986816,
            51.82590505905033
          ],
          [
            6.615507602691651,
            51.82603767864649
          ],
          [
            6.6158509254455575,
            51.82657478401805
          ],
          [
            6.616666316986084,
            51.8275694066837
          ],
          [
            6.61753535270691,
            51.828709880309844
          ],
          [
            6.618490219116212,
            51.829585107926725
          ],
          [
            6.619842052459718,
            51.830009454588584
          ],
          [
            6.621365547180177,
            51.83030782094134
          ],
          [
            6.622105836868287,
            51.83044042757476
          ],
          [
            6.622695922851563,
            51.83057966411965
          ],
          [
            6.625871658325195,
            51.831534417403034
          ],
          [
            6.62801742553711,
            51.83270131059633
          ],
          [
            6.630291938781739,
            51.83461070696837
          ],
          [
            6.6314828395843515,
            51.83565818864319
          ],
          [
            6.632137298583985,
            51.83620180876885
          ],
          [
            6.633424758911134,
            51.836626093087354
          ],
          [
            6.63477659225464,
            51.83688463938358
          ],
          [
            6.638059616088868,
            51.8373950982248
          ],
          [
            6.640055179595948,
            51.83750779615016
          ],
          [
            6.642608642578126,
            51.83750116686823
          ],
          [
            6.649668216705323,
            51.83780611282632
          ]
        ]
      }
    }
  ]
}